*******************************************************************************
Ephemeris / WWW_USER Mon Mar 10 06:42:20 2025 Pasadena, USA      / Horizons    
*******************************************************************************
Target body name: (2018 TG6)                      {source: JPL#30}
Center body name: Earth (399)                     {source: DE441}
Center-site name: Mauna Kea
*******************************************************************************
Start time      : A.D. 2019-Jan-16 04:13:00.0000 UT      
Stop  time      : A.D. 2019-Jan-16 16:49:00.0000 UT      
Step-size       : 1 minutes
*******************************************************************************
Target pole/equ : undefined
Target radii    : undefined                                                    
Center geodetic : 204.5278, 19.8260847, 4.21024   {E-lon(deg),Lat(deg),Alt(km)}
Center cylindric: 204.5278, 6006.35451, 2151.0229 {E-lon(deg),Dxy(km),Dz(km)}
Center pole/equ : ITRF93                          {East-longitude positive}
Center radii    : 6378.137, 6378.137, 6356.752 km {Equator_a, b, pole_c}       
Target primary  : Sun
Vis. interferer : MOON (R_eq= 1737.400) km        {source: DE441}
Rel. light bend : Sun                             {source: DE441}
Rel. lght bnd GM: 1.3271E+11 km^3/s^2                                          
Small-body perts: Yes                             {source: SB441-N16}
Atmos refraction: NO (AIRLESS)
RA format       : HMS
Time format     : CAL 
Calendar mode   : Mixed Julian/Gregorian
RTS-only print  : NO       
EOP file        : eop.250307.p250603                                           
EOP coverage    : DATA-BASED 1962-JAN-20 TO 2025-MAR-07. PREDICTS-> 2025-JUN-02
Units conversion: 1 au= 149597870.700 km, c= 299792.458 km/s, 1 day= 86400.0 s 
Table cut-offs 1: Elevation (-90.0deg=NO ),Airmass (>38.000=NO), Daylight (YES)
Table cut-offs 2: Solar elongation (  0.0,180.0=NO ),Local Hour Angle( 0.0=NO )
Table cut-offs 3: RA/DEC angular rate (     0.0=NO )                           
*******************************************************************************
Initial IAU76/J2000 heliocentric ecliptic osculating elements (au, days, deg.):
  EPOCH=  2458431.5 ! 2018-Nov-09.00 (TDB)         Residual RMS= .2345         
   EC= .08078462401503236  QR= .9719826736009184   TP= 2458484.4320189627      
   OM= 45.37159736002829   W=  55.46172815883946   IN= 1.097814612439332       
  Equivalent ICRF heliocentric cartesian coordinates (au, au/d):
   X= 7.039692724255667E-01  Y= 6.572194580492579E-01  Z= 2.849862807208282E-01
  VX=-1.330010453008250E-02 VY= 1.042346427712734E-02 VZ= 4.885657766154543E-03
Asteroid physical parameters (km, seconds, rotational period in hours):        
   GM= n.a.                RAD= n.a.               ROTPER= n.a.                
   H= 27.25                G= .150                 B-V= n.a.                   
                           ALBEDO= n.a.            STYP= n.a.                  
*******************************************************************************
 Date__(UT)__HR:MN     R.A._________(ICRF)_________DEC
******************************************************
$$SOE
 2019-Jan-16 10:22  m  14 24 26.541155 +08 57 50.48421
 2019-Jan-16 10:23  m  14 24 26.518055 +08 57 49.81756
 2019-Jan-16 10:24  m  14 24 26.494628 +08 57 49.15106
 2019-Jan-16 10:25  m  14 24 26.470872 +08 57 48.48471
 2019-Jan-16 10:26  m  14 24 26.446788 +08 57 47.81849
 2019-Jan-16 10:27  m  14 24 26.422375 +08 57 47.15242
 2019-Jan-16 10:28  m  14 24 26.397632 +08 57 46.48647
 2019-Jan-16 10:29  m  14 24 26.372561 +08 57 45.82066
 2019-Jan-16 10:30  m  14 24 26.347160 +08 57 45.15498
 2019-Jan-16 10:31  m  14 24 26.321429 +08 57 44.48943
 2019-Jan-16 10:32  m  14 24 26.295368 +08 57 43.82399
 2019-Jan-16 10:33  m  14 24 26.268977 +08 57 43.15868
 2019-Jan-16 10:34  m  14 24 26.242256 +08 57 42.49348
 2019-Jan-16 10:35  m  14 24 26.215204 +08 57 41.82839
 2019-Jan-16 10:36  m  14 24 26.187822 +08 57 41.16341
 2019-Jan-16 10:37  m  14 24 26.160108 +08 57 40.49853
 2019-Jan-16 10:38  m  14 24 26.132064 +08 57 39.83376
 2019-Jan-16 10:39  m  14 24 26.103688 +08 57 39.16909
 2019-Jan-16 10:40  m  14 24 26.074981 +08 57 38.50451
 2019-Jan-16 10:41  r  14 24 26.045942 +08 57 37.84002
 2019-Jan-16 10:42  m  14 24 26.016571 +08 57 37.17562
 2019-Jan-16 10:43  m  14 24 25.986869 +08 57 36.51131
 2019-Jan-16 10:44  m  14 24 25.956834 +08 57 35.84708
 2019-Jan-16 10:45  m  14 24 25.926468 +08 57 35.18292
 2019-Jan-16 10:46  m  14 24 25.895769 +08 57 34.51885
 2019-Jan-16 10:47  m  14 24 25.864737 +08 57 33.85484
 2019-Jan-16 10:48  m  14 24 25.833374 +08 57 33.19090
 2019-Jan-16 10:49  m  14 24 25.801677 +08 57 32.52703
 2019-Jan-16 10:50  m  14 24 25.769648 +08 57 31.86322
 2019-Jan-16 10:51  m  14 24 25.737286 +08 57 31.19947
 2019-Jan-16 10:52  m  14 24 25.704591 +08 57 30.53577
 2019-Jan-16 10:53  m  14 24 25.671564 +08 57 29.87213
 2019-Jan-16 10:54  m  14 24 25.638203 +08 57 29.20853
 2019-Jan-16 10:55  m  14 24 25.604509 +08 57 28.54498
 2019-Jan-16 10:56  m  14 24 25.570482 +08 57 27.88147
 2019-Jan-16 10:57  m  14 24 25.536122 +08 57 27.21800
 2019-Jan-16 10:58  m  14 24 25.501428 +08 57 26.55456
 2019-Jan-16 10:59  m  14 24 25.466401 +08 57 25.89116
 2019-Jan-16 11:00  m  14 24 25.431041 +08 57 25.22778
 2019-Jan-16 11:01  m  14 24 25.395347 +08 57 24.56443
 2019-Jan-16 11:02  m  14 24 25.359320 +08 57 23.90110
 2019-Jan-16 11:03  m  14 24 25.322960 +08 57 23.23779
 2019-Jan-16 11:04  m  14 24 25.286266 +08 57 22.57449
 2019-Jan-16 11:05  m  14 24 25.249239 +08 57 21.91121
 2019-Jan-16 11:06  m  14 24 25.211879 +08 57 21.24793
 2019-Jan-16 11:07  m  14 24 25.174185 +08 57 20.58466
 2019-Jan-16 11:08  m  14 24 25.136157 +08 57 19.92139
 2019-Jan-16 11:09  m  14 24 25.097796 +08 57 19.25812
 2019-Jan-16 11:10  m  14 24 25.059102 +08 57 18.59484
 2019-Jan-16 11:11  m  14 24 25.020075 +08 57 17.93156
 2019-Jan-16 11:12  m  14 24 24.980714 +08 57 17.26826
 2019-Jan-16 11:13  m  14 24 24.941020 +08 57 16.60495
 2019-Jan-16 11:14  m  14 24 24.900993 +08 57 15.94162
 2019-Jan-16 11:15  m  14 24 24.860633 +08 57 15.27827
 2019-Jan-16 11:16  m  14 24 24.819940 +08 57 14.61489
 2019-Jan-16 11:17  m  14 24 24.778914 +08 57 13.95148
 2019-Jan-16 11:18  m  14 24 24.737555 +08 57 13.28804
 2019-Jan-16 11:19  m  14 24 24.695864 +08 57 12.62457
 2019-Jan-16 11:20  m  14 24 24.653839 +08 57 11.96106
 2019-Jan-16 11:21  m  14 24 24.611482 +08 57 11.29751
 2019-Jan-16 11:22  m  14 24 24.568793 +08 57 10.63391
 2019-Jan-16 11:23  m  14 24 24.525771 +08 57 09.97026
 2019-Jan-16 11:24  m  14 24 24.482417 +08 57 09.30656
 2019-Jan-16 11:25  m  14 24 24.438731 +08 57 08.64281
 2019-Jan-16 11:26  m  14 24 24.394712 +08 57 07.97899
 2019-Jan-16 11:27  m  14 24 24.350362 +08 57 07.31512
 2019-Jan-16 11:28  m  14 24 24.305681 +08 57 06.65118
 2019-Jan-16 11:29  m  14 24 24.260667 +08 57 05.98717
 2019-Jan-16 11:30  m  14 24 24.215323 +08 57 05.32309
 2019-Jan-16 11:31  m  14 24 24.169647 +08 57 04.65893
 2019-Jan-16 11:32  m  14 24 24.123640 +08 57 03.99470
 2019-Jan-16 11:33  m  14 24 24.077302 +08 57 03.33038
 2019-Jan-16 11:34  m  14 24 24.030633 +08 57 02.66598
 2019-Jan-16 11:35  m  14 24 23.983634 +08 57 02.00149
 2019-Jan-16 11:36  m  14 24 23.936305 +08 57 01.33691
 2019-Jan-16 11:37  m  14 24 23.888645 +08 57 00.67223
 2019-Jan-16 11:38  m  14 24 23.840656 +08 57 00.00746
 2019-Jan-16 11:39  m  14 24 23.792337 +08 56 59.34258
 2019-Jan-16 11:40  m  14 24 23.743688 +08 56 58.67760
 2019-Jan-16 11:41  m  14 24 23.694710 +08 56 58.01251
 2019-Jan-16 11:42  m  14 24 23.645403 +08 56 57.34731
 2019-Jan-16 11:43  m  14 24 23.595768 +08 56 56.68199
 2019-Jan-16 11:44  m  14 24 23.545803 +08 56 56.01655
 2019-Jan-16 11:45  m  14 24 23.495511 +08 56 55.35100
 2019-Jan-16 11:46  m  14 24 23.444891 +08 56 54.68532
 2019-Jan-16 11:47  m  14 24 23.393942 +08 56 54.01951
 2019-Jan-16 11:48  m  14 24 23.342667 +08 56 53.35356
 2019-Jan-16 11:49  m  14 24 23.291064 +08 56 52.68749
 2019-Jan-16 11:50  m  14 24 23.239134 +08 56 52.02128
 2019-Jan-16 11:51  m  14 24 23.186878 +08 56 51.35492
 2019-Jan-16 11:52  m  14 24 23.134295 +08 56 50.68842
 2019-Jan-16 11:53  m  14 24 23.081386 +08 56 50.02177
 2019-Jan-16 11:54  m  14 24 23.028152 +08 56 49.35498
 2019-Jan-16 11:55  m  14 24 22.974592 +08 56 48.68802
 2019-Jan-16 11:56  m  14 24 22.920707 +08 56 48.02091
 2019-Jan-16 11:57  m  14 24 22.866497 +08 56 47.35364
 2019-Jan-16 11:58  m  14 24 22.811963 +08 56 46.68621
 2019-Jan-16 11:59  m  14 24 22.757105 +08 56 46.01861
 2019-Jan-16 12:00  m  14 24 22.701923 +08 56 45.35083
 2019-Jan-16 12:01  m  14 24 22.646418 +08 56 44.68289
 2019-Jan-16 12:02  m  14 24 22.590590 +08 56 44.01476
 2019-Jan-16 12:03  m  14 24 22.534439 +08 56 43.34646
 2019-Jan-16 12:04  m  14 24 22.477966 +08 56 42.67797
 2019-Jan-16 12:05  m  14 24 22.421171 +08 56 42.00930
 2019-Jan-16 12:06  m  14 24 22.364054 +08 56 41.34043
 2019-Jan-16 12:07  m  14 24 22.306617 +08 56 40.67138
 2019-Jan-16 12:08  m  14 24 22.248858 +08 56 40.00212
 2019-Jan-16 12:09  m  14 24 22.190780 +08 56 39.33267
 2019-Jan-16 12:10  m  14 24 22.132381 +08 56 38.66301
 2019-Jan-16 12:11  m  14 24 22.073663 +08 56 37.99315
 2019-Jan-16 12:12  m  14 24 22.014626 +08 56 37.32308
 2019-Jan-16 12:13  m  14 24 21.955270 +08 56 36.65280
 2019-Jan-16 12:14  m  14 24 21.895596 +08 56 35.98230
 2019-Jan-16 12:15  m  14 24 21.835605 +08 56 35.31158
 2019-Jan-16 12:16  m  14 24 21.775296 +08 56 34.64064
 2019-Jan-16 12:17  m  14 24 21.714670 +08 56 33.96947
 2019-Jan-16 12:18  m  14 24 21.653727 +08 56 33.29808
 2019-Jan-16 12:19  m  14 24 21.592469 +08 56 32.62645
 2019-Jan-16 12:20  m  14 24 21.530895 +08 56 31.95459
 2019-Jan-16 12:21  m  14 24 21.469007 +08 56 31.28250
 2019-Jan-16 12:22  m  14 24 21.406803 +08 56 30.61016
 2019-Jan-16 12:23  m  14 24 21.344286 +08 56 29.93758
 2019-Jan-16 12:24  m  14 24 21.281455 +08 56 29.26475
